[{"OBJECT_NAME":"LAPAN-TUBSAT","OBJECT_ID":"2007-001A","EPOCH":"2026-03-09T23:52:11.769024","MEAN_MOTION":14.8582984,"ECCENTRICITY":0.0012806,"INCLINATION":98.1337,"RA_OF_ASC_NODE":66,"ARG_OF_PERICENTER":143.3613,"MEAN_ANOMALY":216.848,"EPHEMERIS_TYPE":0,"CLASSIFICATION_TYPE":"U","NORAD_CAT_ID":29709,"ELEMENT_SET_NO":999,"REV_AT_EPOCH":3642,"BSTAR":8.085944e-5,"MEAN_MOTION_DOT":6.47e-6,"MEAN_MOTION_DDOT":0},{"OBJECT_NAME":"SL-8 DEB","OBJECT_ID":"1978-105C","EPOCH":"2026-03-09T17:24:10.488960","MEAN_MOTION":14.87909662,"ECCENTRICITY":0.00081973,"INCLINATION":74.0198,"RA_OF_ASC_NODE":317.1949,"ARG_OF_PERICENTER":182.704,"MEAN_ANOMALY":177.4098,"EPHEMERIS_TYPE":0,"CLASSIFICATION_TYPE":"U","NORAD_CAT_ID":11113,"ELEMENT_SET_NO":999,"REV_AT_EPOCH":50512,"BSTAR":0.00066990797,"MEAN_MOTION_DOT":6.108e-5,"MEAN_MOTION_DDOT":0}]
